start=new Date('2022-11-11T00:00:00.000Z').valueOf();
sats=[{"APOAPSIS":"566.356","ECCENTRICITY":"0.00012020","COUNTRY_CODE":"US","ARG_OF_PERICENTER":"64.9908","MEAN_MOTION":"15.00446200","SITE":"AFWTR","RCS_SIZE":"LARGE","LAUNCH_DATE":"2022-07-22","OBJECT_NAME":"STARLINK-4411","OBJECT_ID":"2022-084P","GP_ID":"217373614","MEAN_MOTION_DDOT":"0.0000000000000","MEAN_MOTION_DOT":"0.00007913","REV_AT_EPOCH":"1706","CLASSIFICATION_TYPE":"U","BSTAR":"0.00063326000000","OBJECT_TYPE":"PAYLOAD","FILE":"3650843","MEAN_ANOMALY":"295.1440","PERIOD":"95.971","MEAN_ELEMENT_THEORY":"SGP4","EPOCH":"2022-11-10T19:24:40.890240","REF_FRAME":"TEME","TLE_LINE2":"2 53202  97.6542  14.3383 0001202  64.9908 295.1440 15.00446200 17061","SEMIMAJOR_AXIS":"6943.656","CENTER_NAME":"EARTH","INCLINATION":"97.6542","NORAD_CAT_ID":"53202","TLE_LINE1":"1 53202U 22084P   22314.80880660  .00007913  00000-0  63326-3 0  9999","EPHEMERIS_TYPE":"0","PERIAPSIS":"564.687","TIME_SYSTEM":"UTC","ELEMENT_SET_NO":"999","DECAY_DATE":null,"RA_OF_ASC_NODE":"14.3383"},{"RA_OF_ASC_NODE":"13.9299","DECAY_DATE":null,"PERIAPSIS":"561.328","ELEMENT_SET_NO":"999","TIME_SYSTEM":"UTC","NORAD_CAT_ID":"53203","TLE_LINE1":"1 53203U 22084Q   22314.75273543 -.00004541  00000-0 -34917-3 0  9990","SEMIMAJOR_AXIS":"6941.153","INCLINATION":"97.6557","CENTER_NAME":"EARTH","EPHEMERIS_TYPE":"0","TLE_LINE2":"2 53203  97.6557  13.9299 0002435 133.7758 226.3668 15.01257862 17036","PERIOD":"95.920","REF_FRAME":"TEME","MEAN_ELEMENT_THEORY":"SGP4","EPOCH":"2022-11-10T18:03:56.341152","MEAN_ANOMALY":"226.3668","OBJECT_TYPE":"PAYLOAD","BSTAR":"-0.00034917000000","FILE":"3650843","CLASSIFICATION_TYPE":"U","REV_AT_EPOCH":"1703","OBJECT_NAME":"STARLINK-4409","LAUNCH_DATE":"2022-07-22","GP_ID":"217372859","MEAN_MOTION_DOT":"-0.00004541","MEAN_MOTION_DDOT":"0.0000000000000","OBJECT_ID":"2022-084Q","SITE":"AFWTR","RCS_SIZE":"LARGE","MEAN_MOTION":"15.01257862","ARG_OF_PERICENTER":"133.7758","COUNTRY_CODE":"US","ECCENTRICITY":"0.00024350","APOAPSIS":"564.709"},{"FILE":"3650843","BSTAR":"-0.00010126000000","OBJECT_TYPE":"PAYLOAD","REV_AT_EPOCH":"1769","CLASSIFICATION_TYPE":"U","GP_ID":"217373195","MEAN_MOTION_DDOT":"0.0000000000000","MEAN_MOTION_DOT":"-0.00001359","OBJECT_ID":"2022-084R","LAUNCH_DATE":"2022-07-22","OBJECT_NAME":"STARLINK-4410","RCS_SIZE":"LARGE","SITE":"AFWTR","MEAN_MOTION":"15.01250026","COUNTRY_CODE":"US","ARG_OF_PERICENTER":"110.4915","APOAPSIS":"564.475","ECCENTRICITY":"0.00020630","RA_OF_ASC_NODE":"13.9343","DECAY_DATE":null,"TIME_SYSTEM":"UTC","ELEMENT_SET_NO":"999","PERIAPSIS":"561.611","EPHEMERIS_TYPE":"0","CENTER_NAME":"EARTH","SEMIMAJOR_AXIS":"6941.178","INCLINATION":"97.6552","NORAD_CAT_ID":"53204","TLE_LINE1":"1 53204U 22084R   22314.75830829 -.00001359  00000-0 -10126-3 0  9997","TLE_LINE2":"2 53204  97.6552  13.9343 0002063 110.4915 249.6531 15.01250026 17690","PERIOD":"95.920","REF_FRAME":"TEME","EPOCH":"2022-11-10T18:11:57.836256","MEAN_ELEMENT_THEORY":"SGP4","MEAN_ANOMALY":"249.6531"},{"RA_OF_ASC_NODE":"13.9256","DECAY_DATE":null,"ELEMENT_SET_NO":"999","TIME_SYSTEM":"UTC","PERIAPSIS":"561.376","EPHEMERIS_TYPE":"0","TLE_LINE1":"1 53205U 22084S   22314.74905019 -.00003191  00000-0 -24392-3 0  9997","NORAD_CAT_ID":"53205","INCLINATION":"97.6551","SEMIMAJOR_AXIS":"6941.152","CENTER_NAME":"EARTH","TLE_LINE2":"2 53205  97.6551  13.9256 0002365 123.8172 236.3278 15.01258255 17032","REF_FRAME":"TEME","PERIOD":"95.920","MEAN_ELEMENT_THEORY":"SGP4","EPOCH":"2022-11-10T17:58:37.936416","MEAN_ANOMALY":"236.3278","FILE":"3650843","OBJECT_TYPE":"PAYLOAD","BSTAR":"-0.00024392000000","CLASSIFICATION_TYPE":"U","REV_AT_EPOCH":"1703","GP_ID":"217373025","OBJECT_ID":"2022-084S","MEAN_MOTION_DDOT":"0.0000000000000","MEAN_MOTION_DOT":"-0.00003191","OBJECT_NAME":"STARLINK-4397","LAUNCH_DATE":"2022-07-22","RCS_SIZE":"LARGE","SITE":"AFWTR","MEAN_MOTION":"15.01258255","ARG_OF_PERICENTER":"123.8172","COUNTRY_CODE":"US","ECCENTRICITY":"0.00023650","APOAPSIS":"564.659"},{"REF_FRAME":"TEME","PERIOD":"95.920","EPOCH":"2022-11-10T18:04:17.592096","MEAN_ELEMENT_THEORY":"SGP4","MEAN_ANOMALY":"231.8375","INCLINATION":"97.6550","SEMIMAJOR_AXIS":"6941.153","CENTER_NAME":"EARTH","TLE_LINE1":"1 53206U 22084T   22314.75298139 -.00003828  00000-0 -29360-3 0  9994","NORAD_CAT_ID":"53206","EPHEMERIS_TYPE":"0","TLE_LINE2":"2 53206  97.6550  13.9294 0001950 128.3025 231.8375 15.01257912 17037","DECAY_DATE":null,"PERIAPSIS":"561.665","TIME_SYSTEM":"UTC","ELEMENT_SET_NO":"999","RA_OF_ASC_NODE":"13.9294","COUNTRY_CODE":"US","ARG_OF_PERICENTER":"128.3025","APOAPSIS":"564.372","ECCENTRICITY":"0.00019500","MEAN_MOTION":"15.01257912","LAUNCH_DATE":"2022-07-22","OBJECT_NAME":"STARLINK-4408","GP_ID":"217373353","OBJECT_ID":"2022-084T","MEAN_MOTION_DDOT":"0.0000000000000","MEAN_MOTION_DOT":"-0.00003828","SITE":"AFWTR","RCS_SIZE":"LARGE","BSTAR":"-0.00029360000000","OBJECT_TYPE":"PAYLOAD","FILE":"3650843","REV_AT_EPOCH":"1703","CLASSIFICATION_TYPE":"U"},{"RA_OF_ASC_NODE":"13.9230","PERIAPSIS":"562.104","TIME_SYSTEM":"UTC","ELEMENT_SET_NO":"999","DECAY_DATE":null,"TLE_LINE2":"2 53207  97.6560  13.9230 0001315 140.1986 219.9335 15.01258481 17037","SEMIMAJOR_AXIS":"6941.152","INCLINATION":"97.6560","CENTER_NAME":"EARTH","NORAD_CAT_ID":"53207","TLE_LINE1":"1 53207U 22084U   22314.74718967 -.00007860  00000-0 -60803-3 0  9997","EPHEMERIS_TYPE":"0","MEAN_ANOMALY":"219.9335","EPOCH":"2022-11-10T17:55:57.187488","PERIOD":"95.920","REF_FRAME":"TEME","MEAN_ELEMENT_THEORY":"SGP4","REV_AT_EPOCH":"1703","CLASSIFICATION_TYPE":"U","BSTAR":"-0.00060803000000","OBJECT_TYPE":"PAYLOAD","FILE":"3650843","SITE":"AFWTR","RCS_SIZE":"LARGE","LAUNCH_DATE":"2022-07-22","OBJECT_NAME":"STARLINK-4413","MEAN_MOTION_DDOT":"0.0000000000000","GP_ID":"217372443","OBJECT_ID":"2022-084U","MEAN_MOTION_DOT":"-0.00007860","MEAN_MOTION":"15.01258481","APOAPSIS":"563.929","ECCENTRICITY":"0.00013150","COUNTRY_CODE":"US","ARG_OF_PERICENTER":"140.1986"},{"TLE_LINE1":"1 53208U 22084V   22314.75459451 -.00004054  00000-0 -31120-3 0  9991","NORAD_CAT_ID":"53208","SEMIMAJOR_AXIS":"6941.154","INCLINATION":"97.6535","CENTER_NAME":"EARTH","EPHEMERIS_TYPE":"0","TLE_LINE2":"2 53208  97.6535  13.9300 0002343 116.4409 243.7056 15.01257673 17033","REF_FRAME":"TEME","PERIOD":"95.920","MEAN_ELEMENT_THEORY":"SGP4","EPOCH":"2022-11-10T18:06:36.965664","MEAN_ANOMALY":"243.7056","RA_OF_ASC_NODE":"13.9300","DECAY_DATE":null,"PERIAPSIS":"561.393","ELEMENT_SET_NO":"999","TIME_SYSTEM":"UTC","MEAN_MOTION":"15.01257673","ARG_OF_PERICENTER":"116.4409","COUNTRY_CODE":"US","ECCENTRICITY":"0.00023430","APOAPSIS":"564.645","OBJECT_TYPE":"PAYLOAD","BSTAR":"-0.00031120000000","FILE":"3650843","CLASSIFICATION_TYPE":"U","REV_AT_EPOCH":"1703","OBJECT_NAME":"STARLINK-4425","LAUNCH_DATE":"2022-07-22","GP_ID":"217372778","MEAN_MOTION_DDOT":"0.0000000000000","OBJECT_ID":"2022-084V","MEAN_MOTION_DOT":"-0.00004054","SITE":"AFWTR","RCS_SIZE":"LARGE"},{"REF_FRAME":"TEME","PERIOD":"95.920","MEAN_ELEMENT_THEORY":"SGP4","EPOCH":"2022-11-10T17:53:39.351840","MEAN_ANOMALY":"241.3313","EPHEMERIS_TYPE":"0","TLE_LINE1":"1 53209U 22084W   22314.74559435 -.00003484  00000-0 -26677-3 0  9991","NORAD_CAT_ID":"53209","SEMIMAJOR_AXIS":"6941.154","INCLINATION":"97.6558","CENTER_NAME":"EARTH","TLE_LINE2":"2 53209  97.6558  13.9213 0002009 118.8114 241.3313 15.01257547 17030","DECAY_DATE":null,"ELEMENT_SET_NO":"999","TIME_SYSTEM":"UTC","PERIAPSIS":"561.625","RA_OF_ASC_NODE":"13.9213","ARG_OF_PERICENTER":"118.8114","COUNTRY_CODE":"US","ECCENTRICITY":"0.00020090","APOAPSIS":"564.414","MEAN_MOTION":"15.01257547","GP_ID":"217372608","MEAN_MOTION_DDOT":"0.0000000000000","OBJECT_ID":"2022-084W","MEAN_MOTION_DOT":"-0.00003484","OBJECT_NAME":"STARLINK-4423","LAUNCH_DATE":"2022-07-22","RCS_SIZE":"LARGE","SITE":"AFWTR","FILE":"3650843","OBJECT_TYPE":"PAYLOAD","BSTAR":"-0.00026677000000","CLASSIFICATION_TYPE":"U","REV_AT_EPOCH":"1703"},{"FILE":"3650843","BSTAR":"-0.00012685000000","OBJECT_TYPE":"PAYLOAD","REV_AT_EPOCH":"1757","CLASSIFICATION_TYPE":"U","GP_ID":"217373615","OBJECT_ID":"2022-084X","MEAN_MOTION_DDOT":"0.0000000000000","MEAN_MOTION_DOT":"-0.00001687","LAUNCH_DATE":"2022-07-22","OBJECT_NAME":"STARLINK-4427","RCS_SIZE":"LARGE","SITE":"AFWTR","MEAN_MOTION":"15.01241399","COUNTRY_CODE":"US","ARG_OF_PERICENTER":"101.8021","APOAPSIS":"564.435","ECCENTRICITY":"0.00019680","RA_OF_ASC_NODE":"13.9279","DECAY_DATE":null,"TIME_SYSTEM":"UTC","ELEMENT_SET_NO":"999","PERIAPSIS":"561.703","EPHEMERIS_TYPE":"0","INCLINATION":"97.6554","SEMIMAJOR_AXIS":"6941.204","CENTER_NAME":"EARTH","TLE_LINE1":"1 53210U 22084X   22314.75090747 -.00001687  00000-0 -12685-3 0  9997","NORAD_CAT_ID":"53210","TLE_LINE2":"2 53210  97.6554  13.9279 0001968 101.8021 258.3424 15.01241399 17570","PERIOD":"95.921","EPOCH":"2022-11-10T18:01:18.405408","MEAN_ELEMENT_THEORY":"SGP4","REF_FRAME":"TEME","MEAN_ANOMALY":"258.3424"},{"RA_OF_ASC_NODE":"13.9179","DECAY_DATE":null,"PERIAPSIS":"561.622","TIME_SYSTEM":"UTC","ELEMENT_SET_NO":"999","INCLINATION":"97.6550","SEMIMAJOR_AXIS":"6941.262","CENTER_NAME":"EARTH","NORAD_CAT_ID":"53211","TLE_LINE1":"1 53211U 22084Y   22314.74166119  .00001432  00000-0  11620-3 0  9998","EPHEMERIS_TYPE":"0","TLE_LINE2":"2 53211  97.6550  13.9179 0002168 120.1561 239.9878 15.01222629 17553","REF_FRAME":"TEME","PERIOD":"95.922","EPOCH":"2022-11-10T17:47:59.526816","MEAN_ELEMENT_THEORY":"SGP4","MEAN_ANOMALY":"239.9878","BSTAR":"0.00011620000000","OBJECT_TYPE":"PAYLOAD","FILE":"3650843","REV_AT_EPOCH":"1755","CLASSIFICATION_TYPE":"U","LAUNCH_DATE":"2022-07-22","OBJECT_NAME":"STARLINK-4419","GP_ID":"217372860","MEAN_MOTION_DDOT":"0.0000000000000","MEAN_MOTION_DOT":"0.00001432","OBJECT_ID":"2022-084Y","SITE":"AFWTR","RCS_SIZE":"LARGE","MEAN_MOTION":"15.01222629","COUNTRY_CODE":"US","ARG_OF_PERICENTER":"120.1561","APOAPSIS":"564.632","ECCENTRICITY":"0.00021680"}];
